$$SOE
2459580.500000000, A.D. 2022-Jan-01 00:00:00.0000, 2.108706539216757E+08, 3.396712288869865E+08, -1.468801248279175E+07,
2459587.500000000, A.D. 2022-Jan-08 00:00:00.0000, 2.005212830193529E+08, 3.453541763417965E+08, -1.438554521212685E+07,
2459594.500000000, A.D. 2022-Jan-15 00:00:00.0000, 1.900193538193989E+08, 3.507743708749060E+08, -1.407213373797053E+07,
2459601.500000000, A.D. 2022-Jan-22 00:00:00.0000, 1.793723996868860E+08, 3.559268429706413E+08, -1.374798289668567E+07,
2459608.500000000, A.D. 2022-Jan-29 00:00:00.0000, 1.685881612838200E+08, 3.608068936004395E+08, -1.341331059958869E+07,
2459615.500000000, A.D. 2022-Feb-05 00:00:00.0000, 1.576745722487497E+08, 3.654101046974287E+08, -1.306834741512953E+07,
2459622.500000000, A.D. 2022-Feb-12 00:00:00.0000, 1.466397463062912E+08, 3.697323478635154E+08, -1.271333639360313E+07,
2459629.500000000, A.D. 2022-Feb-19 00:00:00.0000, 1.354919645335098E+08, 3.737697936168995E+08, -1.234853282059079E+07,
2459636.500000000, A.D. 2022-Feb-26 00:00:00.0000, 1.242396615256902E+08, 3.775189203989452E+08, -1.197420383905107E+07,
2459643.500000000, A.D. 2022-Mar-05 00:00:00.0000, 1.128914106799427E+08, 3.809765226723577E+08, -1.159062800660124E+07,
2459650.500000000, A.D. 2022-Mar-12 00:00:00.0000, 1.014559088830997E+08, 3.841397179998113E+08, -1.119809481566587E+07,
2459657.500000000, A.D. 2022-Mar-19 00:00:00.0000, 8.994196074398796E+07, 3.870059530917833E+08, -1.079690418300134E+07,
2459664.500000000, A.D. 2022-Mar-26 00:00:00.0000, 7.835846246505485E+07, 3.895730087845660E+08, -1.038736591365919E+07,
2459671.500000000, A.D. 2022-Apr-02 00:00:00.0000, 6.671438549649581E+07, 3.918390038660980E+08, -9.969799152890950E+06,
2459678.500000000, A.D. 2022-Apr-09 00:00:00.0000, 5.501876032221841E+07, 3.938023977350585E+08, -9.544531853433460E+06,
2459685.500000000, A.D. 2022-Apr-16 00:00:00.0000, 4.328066081356874E+07, 3.954619925361452E+08, -9.111900240619004E+06,
2459692.500000000, A.D. 2022-Apr-23 00:00:00.0000, 3.150918796329842E+07, 3.968169358520709E+08, -8.672248073839754E+06,
2459699.500000000, A.D. 2022-Apr-30 00:00:00.0000, 1.971345121098461E+07, 3.978667217049293E+08, -8.225925719472140E+06,
2459706.500000000, A.D. 2022-May-07 00:00:00.0000, 7.902550497818504E+06, 3.986111878993769E+08, -7.773289480114132E+06,
2459713.500000000, A.D. 2022-May-14 00:00:00.0000, -3.914439483519819E+06, 3.990505127668543E+08, -7.314701062997371E+06,
2459720.500000000, A.D. 2022-May-21 00:00:00.0000, -1.572848479720259E+07, 3.991852120932645E+08, -6.850526943072975E+06,
2459727.500000000, A.D. 2022-May-28 00:00:00.0000, -2.753060793688450E+07, 3.990161352983309E+08, -6.381137658468932E+06,
2459734.500000000, A.D. 2022-Jun-04 00:00:00.0000, -3.931190331712855E+07, 3.985444605880576E+08, -5.906907092531800E+06,
2459741.500000000, A.D. 2022-Jun-11 00:00:00.0000, -5.106355237431776E+07, 3.977716891230386E+08, -5.428211758792877E+06,
2459748.500000000, A.D. 2022-Jun-18 00:00:00.0000, -6.277683817804164E+07, 3.966996382616274E+08, -4.945430094497114E+06,
2459755.500000000, A.D. 2022-Jun-25 00:00:00.0000, -7.444315946809469E+07, 3.953304338949752E+08, -4.458941771143347E+06,
2459762.500000000, A.D. 2022-Jul-02 00:00:00.0000, -8.605404393297738E+07, 3.936665018622058E+08, -3.969127042565465E+06,
2459769.500000000, A.D. 2022-Jul-09 00:00:00.0000, -9.760116029550573E+07, 3.917105586801023E+08, -3.476366154558808E+06,
2459776.500000000, A.D. 2022-Jul-16 00:00:00.0000, -1.090763292229758E+08, 3.894656027314268E+08, -2.981038725071490E+06,
2459783.500000000, A.D. 2022-Jul-23 00:00:00.0000, -1.204715352270566E+08, 3.869349060545310E+08, -2.483522889565468E+06,
2459790.500000000, A.D. 2022-Jul-30 00:00:00.0000, -1.317789394394938E+08, 3.841220034421635E+08, -1.984194495328844E+06,
2459797.500000000, A.D. 2022-Aug-06 00:00:00.0000, -1.429908896453925E+08, 3.810306795585148E+08, -1.483426623183072E+06,
2459804.500000000, A.D. 2022-Aug-13 00:00:00.0000, -1.540999283843545E+08, 3.776649568976793E+08, -9.815891378668547E+05,
2459811.500000000, A.D. 2022-Aug-20 00:00:00.0000, -1.650988006764117E+08, 3.740290841469969E+08, -4.790481659977734E+05,
2459818.500000000, A.D. 2022-Aug-27 00:00:00.0000, -1.759804612971372E+08, 3.701275242898772E+08, 2.383443172368407E+04,
2459825.500000000, A.D. 2022-Sep-03 00:00:00.0000, -1.867380813532984E+08, 3.659649423958006E+08, 5.267015615971982E+05,
2459832.500000000, A.D. 2022-Sep-10 00:00:00.0000, -1.973650540752847E+08, 3.615461931779235E+08, 1.029201364480808E+06,
2459839.500000000, A.D. 2022-Sep-17 00:00:00.0000, -2.078549998100208E+08, 3.568763083727578E+08, 1.530987646549612E+06,
2459846.500000000, A.D. 2022-Sep-24 00:00:00.0000, -2.182017701720330E+08, 3.519604839476631E+08, 2.031720263082564E+06,
2459853.500000000, A.D. 2022-Oct-01 00:00:00.0000, -2.283994511334670E+08, 3.468040671694904E+08, 2.531065430952743E+06,
2459860.500000000, A.D. 2022-Oct-08 00:00:00.0000, -2.384423646684828E+08, 3.414125441087520E+08, 3.028695974745229E+06,
2459867.500000000, A.D. 2022-Oct-15 00:00:00.0000, -2.483250699095277E+08, 3.357915288269873E+08, 3.524291689695477E+06,
2459874.500000000, A.D. 2022-Oct-22 00:00:00.0000, -2.580423660245720E+08, 3.299467526089580E+08, 4.017539883743197E+06,
2459881.500000000, A.D. 2022-Oct-29 00:00:00.0000, -2.675892943439173E+08, 3.238840506843616E+08, 4.508135657968923E+06,
2459888.500000000, A.D. 2022-Nov-05 00:00:00.0000, -2.769611376686950E+08, 3.176093492112048E+08, 4.995781957579970E+06,
2459895.500000000, A.D. 2022-Nov-12 00:00:00.0000, -2.861534187628015E+08, 3.111286538205197E+08, 5.480189677603737E+06,
2459902.500000000, A.D. 2022-Nov-19 00:00:00.0000, -2.951618987830174E+08, 3.044480387986560E+08, 5.961077811794907E+06,
2459909.500000000, A.D. 2022-Nov-26 00:00:00.0000, -3.039825754200727E+08, 2.975736365345119E+08, 6.438173589087203E+06,
2459916.500000000, A.D. 2022-Dec-03 00:00:00.0000, -3.126116806207493E+08, 2.905116272409550E+08, 6.911212582420141E+06,
2459923.500000000, A.D. 2022-Dec-10 00:00:00.0000, -3.210456778821754E+08, 2.832682289868778E+08, 7.379938788375288E+06,
2459930.500000000, A.D. 2022-Dec-17 00:00:00.0000, -3.292812591302177E+08, 2.758496880296425E+08, 7.844104674473777E+06,
2459937.500000000, A.D. 2022-Dec-24 00:00:00.0000, -3.373153411087855E+08, 2.682622693937882E+08, 8.303471179960966E+06,
2459944.500000000, A.D. 2022-Dec-31 00:00:00.0000, -3.451450609579350E+08, 2.605122478121943E+08, 8.757807647365555E+06,
2459951.500000000, A.D. 2023-Jan-07 00:00:00.0000, -3.527677708930253E+08, 2.526058999977834E+08, 9.206891753561631E+06,
2459958.500000000, A.D. 2023-Jan-14 00:00:00.0000, -3.601810339872122E+08, 2.445494987462964E+08, 9.650509662644893E+06,
2459965.500000000, A.D. 2023-Jan-21 00:00:00.0000, -3.673826217360528E+08, 2.363493057007669E+08, 1.008845620174703E+07,
2459972.500000000, A.D. 2023-Jan-28 00:00:00.0000, -3.743705097650791E+08, 2.280115625819060E+08, 1.052053470885837E+07,
2459979.500000000, A.D. 2023-Feb-04 00:00:00.0000, -3.811428719171281E+08, 2.195424839066703E+08, 1.094655682070017E+07,
2459986.500000000, A.D. 2023-Feb-11 00:00:00.0000, -3.876980745450296E+08, 2.109482509963718E+08, 1.136634235068393E+07,
2459993.500000000, A.D. 2023-Feb-18 00:00:00.0000, -3.940346711003932E+08, 2.022350064461975E+08, 1.177971919666776E+07,
2460000.500000000, A.D. 2023-Feb-25 00:00:00.0000, -4.001513967799811E+08, 1.934088488867476E+08, 1.218652324244556E+07,
2460007.500000000, A.D. 2023-Mar-04 00:00:00.0000, -4.060471631504095E+08, 1.844758280465554E+08, 1.258659824637285E+07,
2460014.500000000, A.D. 2023-Mar-11 00:00:00.0000, -4.117210527447376E+08, 1.754419401050024E+08, 1.297979571577102E+07,
2460021.500000000, A.D. 2023-Mar-18 00:00:00.0000, -4.171723136052282E+08, 1.663131232744084E+08, 1.336597475998086E+07,
2460028.500000000, A.D. 2023-Mar-25 00:00:00.0000, -4.224003535891922E+08, 1.570952535520305E+08, 1.374500190080623E+07,
2460035.500000000, A.D. 2023-Apr-01 00:00:00.0000, -4.274047340321206E+08, 1.477941410230480E+08, 1.411675083478898E+07,
2460042.500000000, A.D. 2023-Apr-08 00:00:00.0000, -4.321851634008064E+08, 1.384155279267265E+08, 1.448110230501994E+07,
2460049.500000000, A.D. 2023-Apr-15 00:00:00.0000, -4.367414932904322E+08, 1.289650873668636E+08, 1.483794420745645E+07,
2460056.500000000, A.D. 2023-Apr-22 00:00:00.0000, -4.410737149717910E+08, 1.194484196032416E+08, 1.518717151733027E+07,
2460063.500000000, A.D. 2023-Apr-29 00:00:00.0000, -4.451819537636989E+08, 1.098710481651406E+08, 1.552868596981585E+07,
2460070.500000000, A.D. 2023-May-06 00:00:00.0000, -4.490664629988577E+08, 1.002384175536729E+08, 1.586239580265884E+07,
2460077.500000000, A.D. 2023-May-13 00:00:00.0000, -4.527276185688911E+08, 9.055589162498257E+07, 1.618821557776411E+07,
2460084.500000000, A.D. 2023-May-20 00:00:00.0000, -4.561659138219918E+08, 8.082875214938438E+07, 1.650606602049319E+07,
2460091.500000000, A.D. 2023-May-27 00:00:00.0000, -4.593819546258964E+08, 7.106219750238113E+07, 1.681587385682755E+07,
2460098.500000000, A.D. 2023-Jun-03 00:00:00.0000, -4.623764545451060E+08, 6.126134149857979E+07, 1.711757164546592E+07,
2460105.500000000, A.D. 2023-Jun-10 00:00:00.0000, -4.651502301156093E+08, 5.143121234073199E+07, 1.741109760172314E+07,
2460112.500000000, A.D. 2023-Jun-17 00:00:00.0000, -4.677041961345266E+08, 4.157675161126171E+07, 1.769639540030898E+07,
2460119.500000000, A.D. 2023-Jun-24 00:00:00.0000, -4.700393606495056E+08, 3.170281335041180E+07, 1.797341393233488E+07,
2460126.500000000, A.D. 2023-Jul-01 00:00:00.0000, -4.721568193975919E+08, 2.181416403791821E+07, 1.824210706115058E+07,
2460133.500000000, A.D. 2023-Jul-08 00:00:00.0000, -4.740577513692043E+08, 1.191548428869186E+07, 1.850243359784032E+07,
2460140.500000000, A.D. 2023-Jul-15 00:00:00.0000, -4.757434167761329E+08, 2.011369421147000E+06, 1.875435738233608E+07,
2460147.500000000, A.D. 2023-Jul-22 00:00:00.0000, -4.772151539039736E+08, -7.893672146326595E+06, 1.899784706283436E+07,
$$EOE